INMARSAT 4-F2 (SOUTHPA*)
1 28899U 05044A   26073.37628956 -.00000258  00000+0  00000+0 0  9997
2 28899   4.9701  43.7929 0002742 334.9327  72.2242  1.00271367 74578
GSAT-8 (GAGAN/PRN 127)  
1 37605U 11022A   26073.57938216  .00000085  00000+0  00000+0 0  9997
2 37605   1.8849  83.0143 0006862 216.9892 135.8320  1.00270917 52265
LUCH 5A (SDCM/PRN 140)  
1 37951U 11074B   26073.31631042 -.00000045  00000+0  00000+0 0  9994
2 37951   8.5116  75.1968 0003401 262.5594 115.1508  1.00268954 52109
SES-5 (EGNOS/PRN 136)   
1 38652U 12036A   26072.36989076  .00000034  00000+0  00000+0 0  9996
2 38652   0.0621 308.2644 0001933  45.9498 314.9176  1.00273267 43496
GSAT-10 (GAGAN/PRN 128) 
1 38779U 12051B   26073.58492885 -.00000166  00000+0  00000+0 0  9992
2 38779   0.0494 256.0223 0005079 184.4125  25.3436  1.00272446 49146
LUCH 5B (SDCM/PRN 125)  
1 38977U 12061A   26073.20866997 -.00000132  00000+0  00000+0 0  9994
2 38977  10.2786  50.8054 0003217 227.4516 312.3743  1.00271980 48656
ASTRA 5B (EGNOS/PRN 123)
1 39617U 14011B   26072.64614312  .00000137  00000+0  00000+0 0  9996
2 39617   0.0979 295.8843 0003417  40.8961  90.6232  1.00275464 43700
LUCH 5V (SDCM/PRN 141)  
1 39727U 14023A   26073.68279591 -.00000266  00000+0  00000+0 0  9996
2 39727   4.8991  70.6656 0003135 297.7893 144.3232  1.00268817 43412
GSAT-15 (GAGAN/PRN 139) 
1 41028U 15065A   26073.66757373 -.00000259  00000+0  00000+0 0  9999
2 41028   0.0660 269.2519 0001556 126.1691 110.6848  1.00271606 37850
EUTELSAT 117 WEST B (W*)
1 41589U 16038B   26073.30322345 -.00000012  00000+0  00000+0 0  9997
2 41589   0.0416   6.7202 0000259 285.2785 232.0791  1.00272184 35715
SES-15 (WAAS/PRN 133)   
1 42709U 17026A   26071.61751647  .00000060  00000+0  00000+0 0  9995
2 42709   0.0388 330.9168 0000706  38.8107 253.6487  1.00270524  6465
QZS-2 (QZSS/PRN 194)    
1 42738U 17028A   26073.34350848 -.00000134  00000+0  00000+0 0  9992
2 42738  39.5754 244.5340 0744466 270.4251 281.8153  1.00259390  6679
QZS-3 (QZSS/PRN 199)    
1 42917U 17048A   26073.59368222 -.00000349  00000+0  00000+0 0  9993
2 42917   0.0571 197.4468 0002321 174.1687 141.3567  1.00271124 31312
QZS-4 (QZSS/PRN 195)    
1 42965U 17062A   26073.49053517 -.00000295  00000+0  00000+0 0  9999
2 42965  40.1667 344.6961 0747996 270.0324 234.5669  1.00278341 30852
BEIDOU-3 G1 (PRN 130)   
1 43683U 18085A   26072.31265080 -.00000279  00000+0  00000+0 0  9995
2 43683   2.8312 100.0786 0002095   8.4898 314.8220  1.00265903 27091
EUTELSAT 5 WEST B (EGN*)
1 44624U 19067A   26073.35357726 -.00000043  00000+0  00000+0 0  9995
2 44624   0.0796 323.2366 0003188  41.8374 289.1747  1.00271709 23488
BEIDOU-3 G2 (PRN 144)   
1 45344U 20017A   26073.58432219 -.00000139  00000+0  00000+0 0  9994
2 45344   2.6734  45.7481 0002723 322.7412  94.1144  1.00272419 22315
